[{"OBJECT_NAME":"STARLINK-5570","OBJECT_ID":"2023-014AU","EPOCH":"2026-03-09T12:07:30.730656","MEAN_MOTION":14.98318176,"ECCENTRICITY":0.00031327,"INCLINATION":69.9992,"RA_OF_ASC_NODE":104.8203,"ARG_OF_PERICENTER":269.6971,"MEAN_ANOMALY":90.3829,"EPHEMERIS_TYPE":0,"CLASSIFICATION_TYPE":"U","NORAD_CAT_ID":55433,"ELEMENT_SET_NO":999,"REV_AT_EPOCH":17104,"BSTAR":0.0001441198,"MEAN_MOTION_DOT":1.626e-5,"MEAN_MOTION_DDOT":0},{"OBJECT_NAME":"AISSAT 1","OBJECT_ID":"2010-035C","EPOCH":"2026-03-09T18:13:55.092288","MEAN_MOTION":14.96891223,"ECCENTRICITY":0.00096674,"INCLINATION":98.1015,"RA_OF_ASC_NODE":324.4785,"ARG_OF_PERICENTER":31.9143,"MEAN_ANOMALY":328.2662,"EPHEMERIS_TYPE":0,"CLASSIFICATION_TYPE":"U","NORAD_CAT_ID":36797,"ELEMENT_SET_NO":999,"REV_AT_EPOCH":84934,"BSTAR":0.00027660201,"MEAN_MOTION_DOT":3.114e-5,"MEAN_MOTION_DDOT":0}]
